DTUSAT-2                
1 40030U 14033W   26178.47483542  .00007804  00000+0  41981-3 0  9993
2 40030  98.0861 176.8557 0007677 187.3019 172.8101 15.15143553654240
QB50P2                  
1 40032U 14033Y   26178.46814780  .00007184  00000+0  38517-3 0  9998
2 40032  98.0751 175.9888 0008870 132.8491 227.3486 15.15287233654226
PERSEUS-M1              
1 40039U 14033AF  26178.40596215  .00001878  00000+0  17421-3 0  9994
2 40039  97.9649 122.7056 0009818 262.8957  97.1147 14.95666560652167
POLYITAN-1              
1 40042U 14033AJ  26178.03640311  .00020395  00000+0  62898-3 0  9997
2 40042  98.0939 205.2302 0008864 114.7934 245.4230 15.33595602655105
TIGRISAT                
1 40043U 14033AK  26178.35657102  .00001846  00000+0  21693-3 0  9997
2 40043  97.7841 328.1357 0050082  42.6037 317.9046 14.85197362647132
CANX-4                  
1 40055U 14034C   26178.21686773  .00000942  00000+0  12806-3 0  9994
2 40055  98.3111  53.8976 0012394 345.1677  14.9169 14.81281845646018
CANX-5                  
1 40056U 14034D   26178.21518419  .00000937  00000+0  12736-3 0  9992
2 40056  98.3113  53.9400 0012391 345.4382  14.6471 14.81299077636824
GONETS-M 10             
1 40063U 14036C   26178.53459080  .00000011  00000+0  84050-5 0  9998
2 40063  82.5115 301.2467 0022921 118.9429 241.3953 12.42945888543538
METEOR-M 2              
1 40069U 14037A   26178.49292802  .00000190  00000+0  10632-3 0  9998
2 40069  98.5111 153.8662 0006255  18.3041 341.8361 14.21464306620782
DX1                     
1 40071U 14037C   26178.50182407  .00001720  00000+0  18476-3 0  9996
2 40071  98.3861 140.8291 0005916 233.7091 126.3579 14.90013365647642
UKUBE-1                 
1 40074U 14037F   26177.95219198  .00009082  00000+0  50852-3 0  9998
2 40074  98.4236 182.2506 0003059 116.7089 243.4453 15.13699275650039
GAOFEN-2                
1 40118U 14049A   26178.51417127  .00000372  00000+0  55018-4 0  9998
2 40118  98.0111 242.7117 0006800 189.0734 171.0357 14.80908220640767
BRITE-PL2 (HEWELIUSZ)   
1 40119U 14049B   26178.54934473  .00001631  00000+0  15572-3 0  9999
2 40119  97.9108 290.6296 0015327  76.8594 283.4336 14.94631287642996
CBERS 4                 
1 40336U 14079A   26178.49249450  .00000351  00000+0  13657-3 0  9991
2 40336  98.3534 235.0010 0001549  53.9698 306.1632 14.35512475605436
SMAP                    
1 40376U 15003A   26178.47306969  .00000423  00000+0  91017-4 0  9997
2 40376  98.1276 185.4218 0001437  98.2882 261.8483 14.63375059609129
GONETS-M 11             
1 40552U 15020A   26178.55354446  .00000009  00000+0 -37718-5 0  9994
2 40552  82.4869  24.5317 0016120 343.3773  16.6776 12.42877909510027
GONETS-M 12             
1 40553U 15020B   26178.52692197  .00000073  00000+0  45379-3 0  9990
2 40553  82.4903  25.6748 0014843 328.1641  31.8540 12.42891670510010
GONETS-M 13             
1 40554U 15020C   26178.58107493  .00000067  00000+0  41642-3 0  9999
2 40554  82.4865  24.2531 0013191 312.7847  47.2122 12.42871270509991
DMC3-FM1                
1 40715U 15032A   26178.57692826  .00000781  00000+0  95880-4 0  9996
2 40715  97.6457  43.3440 0006373  32.4321 327.7285 14.85749312591451
DMC3-FM2                
1 40716U 15032B   26178.53159113  .00001151  00000+0  13836-3 0  9992
2 40716  97.6513  44.8813 0007095  36.6420 323.5280 14.85757629591441
DMC3-FM3                
1 40717U 15032C   26178.55499087  .00000166  00000+0  25091-4 0  9994
2 40717  97.6565  46.6635 0006302  37.5927 322.5728 14.85743831591450
CARBONITE 1 (CBNT-1)    
1 40718U 15032D   26178.50160374  .00001567  00000+0  19587-3 0  9992
2 40718  97.6508 356.1362 0012955 260.4416  99.5335 14.83615724590872
LILACSAT-2              
1 40908U 15049K   26178.52648132  .00018347  00000+0  30854-3 0  9990
2 40908  97.4636 215.7623 0006505 199.7260 160.3742 15.51778307597350
COSMOS 2507 (RODNIK-S *)
1 40920U 15050A   26178.53551279 -.00000042  00000+0 -37124-3 0  9994
2 40920  82.4927  73.2273 0009727 334.4497  25.6101 12.42926724488141
COSMOS 2508 (RODNIK-S *)
1 40921U 15050B   26178.49063360 -.00000041  00000+0 -37006-3 0  9997
2 40921  82.4879  71.7564 0014779   5.4155 354.7082 12.42914216488128
COSMOS 2509 (RODNIK-S *)
1 40922U 15050C   26178.51122644  .00000028  00000+0  12716-3 0  9996
2 40922  82.4887  71.8469 0015408  21.8108 338.3625 12.42883937488163
