OBJECT_NAME,OBJECT_ID,EPOCH,MEAN_MOTION,ECCENTRICITY,INCLINATION,RA_OF_ASC_NODE,ARG_OF_PERICENTER,MEAN_ANOMALY,EPHEMERIS_TYPE,CLASSIFICATION_TYPE,NORAD_CAT_ID,ELEMENT_SET_NO,REV_AT_EPOCH,BSTAR,MEAN_MOTION_DOT,MEAN_MOTION_DDOT
DTUSAT-2,2014-033W,2026-06-27T11:23:45.780288,15.15143553,.0007677,98.0861,176.8557,187.3019,172.8101,0,U,40030,999,65424,.41981E-3,.7804E-4,0
QB50P2,2014-033Y,2026-06-27T11:14:07.969920,15.15287233,.000887,98.0751,175.9888,132.8491,227.3486,0,U,40032,999,65422,.38517E-3,.7184E-4,0
PERSEUS-M1,2014-033AF,2026-06-27T09:44:35.129760,14.95666560,.0009818,97.9649,122.7056,262.8957,97.1147,0,U,40039,999,65216,.17421E-3,.1878E-4,0
POLYITAN-1,2014-033AJ,2026-06-27T00:52:25.228704,15.33595602,.00088648,98.0939,205.2302,114.7934,245.4230,0,U,40042,999,65510,.62898095E-3,.20395E-3,0
TIGRISAT,2014-033AK,2026-06-27T08:33:27.736128,14.85197362,.0050082,97.7841,328.1357,42.6037,317.9046,0,U,40043,999,64713,.21693E-3,.1846E-4,0
CANX-4,2014-034C,2026-06-27T05:12:17.371872,14.81281845,.00123943,98.3111,53.8976,345.1677,14.9169,0,U,40055,999,64601,.12805565E-3,.942E-5,0
CANX-5,2014-034D,2026-06-27T05:09:51.914016,14.81299077,.00123916,98.3113,53.9400,345.4382,14.6471,0,U,40056,999,63682,.12735879E-3,.937E-5,0
GONETS-M 10,2014-036C,2026-06-27T12:49:48.645120,12.42945888,.0022921,82.5115,301.2467,118.9429,241.3953,0,U,40063,999,54353,.8405E-5,.11E-6,0
METEOR-M 2,2014-037A,2026-06-27T11:49:48.980928,14.21464306,.0006255,98.5111,153.8662,18.3041,341.8361,0,U,40069,999,62078,.10632E-3,.19E-5,0
DX1,2014-037C,2026-06-27T12:02:37.599648,14.90013365,.0005916,98.3861,140.8291,233.7091,126.3579,0,U,40071,999,64764,.18476E-3,.172E-4,0
UKUBE-1,2014-037F,2026-06-26T22:51:09.387072,15.13699275,.0003059,98.4236,182.2506,116.7089,243.4453,0,U,40074,999,65003,.50852E-3,.9082E-4,0
GAOFEN-2,2014-049A,2026-06-27T12:20:24.397728,14.80908220,.00068,98.0111,242.7117,189.0734,171.0357,0,U,40118,999,64076,.55018E-4,.372E-5,0
BRITE-PL2 (HEWELIUSZ),2014-049B,2026-06-27T13:11:03.384672,14.94631287,.0015327,97.9108,290.6296,76.8594,283.4336,0,U,40119,999,64299,.15572E-3,.1631E-4,0
CBERS 4,2014-079A,2026-06-27T11:49:11.524800,14.35512475,.0001549,98.3534,235.0010,53.9698,306.1632,0,U,40336,999,60543,.13657E-3,.351E-5,0
SMAP,2015-003A,2026-06-27T11:21:13.221216,14.63375059,.0001437,98.1276,185.4218,98.2882,261.8483,0,U,40376,999,60912,.91017E-4,.423E-5,0
GONETS-M 11,2015-020A,2026-06-27T13:17:06.241344,12.42877909,.001612,82.4869,24.5317,343.3773,16.6776,0,U,40552,999,51002,-.37718E-5,.9E-7,0
GONETS-M 12,2015-020B,2026-06-27T12:38:46.058208,12.42891670,.0014843,82.4903,25.6748,328.1641,31.8540,0,U,40553,999,51001,.45379E-3,.73E-6,0
GONETS-M 13,2015-020C,2026-06-27T13:56:44.873952,12.42871270,.0013191,82.4865,24.2531,312.7847,47.2122,0,U,40554,999,50999,.41642E-3,.67E-6,0
DMC3-FM1,2015-032A,2026-06-27T13:50:46.601664,14.85749312,.0006373,97.6457,43.3440,32.4321,327.7285,0,U,40715,999,59145,.9588E-4,.781E-5,0
DMC3-FM2,2015-032B,2026-06-27T12:45:29.473632,14.85757629,.0007095,97.6513,44.8813,36.6420,323.5280,0,U,40716,999,59144,.13836E-3,.1151E-4,0
DMC3-FM3,2015-032C,2026-06-27T13:19:11.211168,14.85743831,.0006302,97.6565,46.6635,37.5927,322.5728,0,U,40717,999,59145,.25091E-4,.166E-5,0
CARBONITE 1 (CBNT-1),2015-032D,2026-06-27T12:02:18.563136,14.83615724,.0012955,97.6508,356.1362,260.4416,99.5335,0,U,40718,999,59087,.19587E-3,.1567E-4,0
LILACSAT-2,2015-049K,2026-06-27T12:38:07.986048,15.51778307,.0006505,97.4636,215.7623,199.7260,160.3742,0,U,40908,999,59735,.30854E-3,.18347E-3,0
COSMOS 2507 (RODNIK-S 13),2015-050A,2026-06-27T12:51:08.305056,12.42926724,.0009727,82.4927,73.2273,334.4497,25.6101,0,U,40920,999,48814,-.37124E-3,-.42E-6,0
COSMOS 2508 (RODNIK-S 14),2015-050B,2026-06-27T11:46:30.743040,12.42914216,.0014779,82.4879,71.7564,5.4155,354.7082,0,U,40921,999,48812,-.37006E-3,-.41E-6,0
COSMOS 2509 (RODNIK-S 15),2015-050C,2026-06-27T12:16:09.964416,12.42883937,.0015408,82.4887,71.8469,21.8108,338.3625,0,U,40922,999,48816,.12716E-3,.28E-6,0
